{
  "type": "FeatureCollection",
  "features": [
    {
      "type": "Feature",
      "properties": {
        "norad_id": 66905,
        "name": "STARLINK-36075",
        "group": "last-30-days",
        "lat": -50.75902593094,
        "lon": -12.290809018196958,
        "alt_km": 316.07608517557946,
        "timestamp": "2025-12-16T13:52:36.288911+00:00",
        "meta_object_name": "STARLINK-36075",
        "meta_object_id": "2025-283AD",
        "meta_epoch": "2025-12-15T21:34:05.850912",
        "meta_mean_motion": 15.87207366,
        "meta_eccentricity": 0.00014569,
        "meta_inclination": 53.1547,
        "meta_ra_of_asc_node": 57.7977,
        "meta_arg_of_pericenter": 4.3082,
        "meta_mean_anomaly": 355.7956,
        "meta_ephemeris_type": 0,
        "meta_classification_type": "U",
        "meta_norad_cat_id": 66905,
        "meta_element_set_no": 999,
        "meta_rev_at_epoch": 295,
        "meta_bstar": -0.0012604115,
        "meta_mean_motion_dot": -0.00325216,
        "meta_mean_motion_ddot": 0,
        "tle_line1": "1 66905U 25283AD  25349.89867883 -.00325216  00000+0 -12604-2 0  9991",
        "tle_line2": "2 66905  53.1547  57.7977 0001456   4.3082 355.7956 15.87207366  2959"
      },
      "geometry": {
        "type": "Point",
        "coordinates": [
          -12.290809018196958,
          -50.75902593094
        ]
      }
    },
    {
      "type": "Feature",
      "properties": {
        "norad_id": 66906,
        "name": "1998-067XS",
        "group": "last-30-days",
        "lat": -50.66547548663212,
        "lon": 18.574018030428647,
        "alt_km": 417.37804802741266,
        "timestamp": "2025-12-16T13:52:36.288921+00:00",
        "meta_object_name": "1998-067XS",
        "meta_object_id": "1998-067XS",
        "meta_epoch": "2025-12-15T16:39:04.886784",
        "meta_mean_motion": 15.50732342,
        "meta_eccentricity": 0.00032898,
        "meta_inclination": 51.6303,
        "meta_ra_of_asc_node": 127.7667,
        "meta_arg_of_pericenter": 216.5725,
        "meta_mean_anomaly": 143.504,
        "meta_ephemeris_type": 0,
        "meta_classification_type": "U",
        "meta_norad_cat_id": 66906,
        "meta_element_set_no": 999,
        "meta_rev_at_epoch": 207,
        "meta_bstar": 0.00035286566,
        "meta_mean_motion_dot": 0.00020263,
        "meta_mean_motion_ddot": 0,
        "tle_line1": "1 66906U 98067XS  25349.69380656  .00020263  00000+0  35287-3 0  9993",
        "tle_line2": "2 66906  51.6303 127.7667 0003289 216.5725 143.5040 15.50732342  2071"
      },
      "geometry": {
        "type": "Point",
        "coordinates": [
          18.574018030428647,
          -50.66547548663212
        ]
      }
    },
    {
      "type": "Feature",
      "properties": {
        "norad_id": 66907,
        "name": "1998-067XT",
        "group": "last-30-days",
        "lat": -47.39633189914621,
        "lon": 63.82729801819284,
        "alt_km": 413.5614058360361,
        "timestamp": "2025-12-16T13:52:36.288933+00:00",
        "meta_object_name": "1998-067XT",
        "meta_object_id": "1998-067XT",
        "meta_epoch": "2025-12-15T19:37:52.461984",
        "meta_mean_motion": 15.51845045,
        "meta_eccentricity": 0.00041213,
        "meta_inclination": 51.6296,
        "meta_ra_of_asc_node": 127.0953,
        "meta_arg_of_pericenter": 244.2963,
        "meta_mean_anomaly": 115.7601,
        "meta_ephemeris_type": 0,
        "meta_classification_type": "U",
        "meta_norad_cat_id": 66907,
        "meta_element_set_no": 999,
        "meta_rev_at_epoch": 209,
        "meta_bstar": 0.00082636885,
        "meta_mean_motion_dot": 0.0005023,
        "meta_mean_motion_ddot": 0,
        "tle_line1": "1 66907U 98067XT  25349.81796831  .00050230  00000+0  82637-3 0  9992",
        "tle_line2": "2 66907  51.6296 127.0953 0004121 244.2963 115.7601 15.51845045  2094"
      },
      "geometry": {
        "type": "Point",
        "coordinates": [
          63.82729801819284,
          -47.39633189914621
        ]
      }
    },
    {
      "type": "Feature",
      "properties": {
        "norad_id": 66908,
        "name": "1998-067XU",
        "group": "last-30-days",
        "lat": -46.10230661010331,
        "lon": 67.88023954555987,
        "alt_km": 413.32913814176845,
        "timestamp": "2025-12-16T13:52:36.288946+00:00",
        "meta_object_name": "1998-067XU",
        "meta_object_id": "1998-067XU",
        "meta_epoch": "2025-12-15T18:04:25.292064",
        "meta_mean_motion": 15.51929885,
        "meta_eccentricity": 0.00042378,
        "meta_inclination": 51.6291,
        "meta_ra_of_asc_node": 127.4116,
        "meta_arg_of_pericenter": 243.4196,
        "meta_mean_anomaly": 116.636,
        "meta_ephemeris_type": 0,
        "meta_classification_type": "U",
        "meta_norad_cat_id": 66908,
        "meta_element_set_no": 999,
        "meta_rev_at_epoch": 208,
        "meta_bstar": 0.00081150303,
        "meta_mean_motion_dot": 0.00049466,
        "meta_mean_motion_ddot": 0,
        "tle_line1": "1 66908U 98067XU  25349.75307051  .00049466  00000+0  81150-3 0  9996",
        "tle_line2": "2 66908  51.6291 127.4116 0004237 243.4196 116.6360 15.51929885  2088"
      },
      "geometry": {
        "type": "Point",
        "coordinates": [
          67.88023954555987,
          -46.10230661010331
        ]
      }
    },
    {
      "type": "Feature",
      "properties": {
        "norad_id": 66909,
        "name": "SILVERSAT",
        "group": "last-30-days",
        "lat": -44.391761166962894,
        "lon": 72.43539682392463,
        "alt_km": 413.0380118258172,
        "timestamp": "2025-12-16T13:52:36.288958+00:00",
        "meta_object_name": "SILVERSAT",
        "meta_object_id": "1998-067XV",
        "meta_epoch": "2025-12-15T14:58:08.164704",
        "meta_mean_motion": 15.52037636,
        "meta_eccentricity": 0.00041166,
        "meta_inclination": 51.6296,
        "meta_ra_of_asc_node": 128.048,
        "meta_arg_of_pericenter": 244.867,
        "meta_mean_anomaly": 115.1892,
        "meta_ephemeris_type": 0,
        "meta_classification_type": "U",
        "meta_norad_cat_id": 66909,
        "meta_element_set_no": 999,
        "meta_rev_at_epoch": 206,
        "meta_bstar": 0.00079995468,
        "meta_mean_motion_dot": 0.00048941,
        "meta_mean_motion_ddot": 0,
        "tle_line1": "1 66909U 98067XV  25349.62370561  .00048941  00000+0  79995-3 0  9990",
        "tle_line2": "2 66909  51.6296 128.0480 0004116 244.8670 115.1892 15.52037636  2060"
      },
      "geometry": {
        "type": "Point",
        "coordinates": [
          72.43539682392463,
          -44.391761166962894
        ]
      }
    },
    {
      "type": "Feature",
      "properties": {
        "norad_id": 66910,
        "name": "1998-067XW",
        "group": "last-30-days",
        "lat": -39.08853714572822,
        "lon": 83.21765734959607,
        "alt_km": 413.88520163505746,
        "timestamp": "2025-12-16T13:52:36.288968+00:00",
        "meta_object_name": "1998-067XW",
        "meta_object_id": "1998-067XW",
        "meta_epoch": "2025-12-15T16:28:26.170464",
        "meta_mean_motion": 15.52120253,
        "meta_eccentricity": 0.00047674,
        "meta_inclination": 51.6293,
        "meta_ra_of_asc_node": 127.717,
        "meta_arg_of_pericenter": 223.5527,
        "meta_mean_anomaly": 136.5086,
        "meta_ephemeris_type": 0,
        "meta_classification_type": "U",
        "meta_norad_cat_id": 66910,
        "meta_element_set_no": 999,
        "meta_rev_at_epoch": 207,
        "meta_bstar": 0.00072313444,
        "meta_mean_motion_dot": 0.00044307,
        "meta_mean_motion_ddot": 0,
        "tle_line1": "1 66910U 98067XW  25349.68641401  .00044307  00000+0  72313-3 0  9991",
        "tle_line2": "2 66910  51.6293 127.7170 0004767 223.5527 136.5086 15.52120253  2079"
      },
      "geometry": {
        "type": "Point",
        "coordinates": [
          83.21765734959607,
          -39.08853714572822
        ]
      }
    },
    {
      "type": "Feature",
      "properties": {
        "norad_id": 66911,
        "name": "1998-067XX",
        "group": "last-30-days",
        "lat": -33.906257521111264,
        "lon": 91.08647901924456,
        "alt_km": 412.93310484469293,
        "timestamp": "2025-12-16T13:52:36.288978+00:00",
        "meta_object_name": "1998-067XX",
        "meta_object_id": "1998-067XX",
        "meta_epoch": "2025-12-15T13:21:12.839040",
        "meta_mean_motion": 15.52435494,
        "meta_eccentricity": 0.00044725,
        "meta_inclination": 51.6293,
        "meta_ra_of_asc_node": 128.3487,
        "meta_arg_of_pericenter": 225.8375,
        "meta_mean_anomaly": 134.2248,
        "meta_ephemeris_type": 0,
        "meta_classification_type": "U",
        "meta_norad_cat_id": 66911,
        "meta_element_set_no": 999,
        "meta_rev_at_epoch": 204,
        "meta_bstar": 0.00085850941,
        "meta_mean_motion_dot": 0.00053353,
        "meta_mean_motion_ddot": 0,
        "tle_line1": "1 66911U 98067XX  25349.55639860  .00053353  00000+0  85851-3 0  9996",
        "tle_line2": "2 66911  51.6293 128.3487 0004472 225.8375 134.2248 15.52435494  2045"
      },
      "geometry": {
        "type": "Point",
        "coordinates": [
          91.08647901924456,
          -33.906257521111264
        ]
      }
    }
  ]
}